STARLINK-3979           
1 52608U 22052L   24263.43140590 -.00001741  00000+0 -91372-4 0  9995
2 52608  53.2161 166.4742 0001348  89.6343 270.4804 15.08827680130273
STARLINK-3997           
1 52609U 22052M   24263.15539217 -.00003775  00000+0 -21928-3 0  9991
2 52609  53.2153 167.6665 0001658 119.9512 240.1645 15.08825693130236
STARLINK-3998           
1 52610U 22052N   24263.47326514 -.00000449  00000+0 -10127-4 0  9997
2 52610  53.2173 171.2866 0001421  84.8291 275.2863 15.08833853130201
STARLINK-3980           
1 52611U 22052P   24263.13469505  .00025193  00000+0  15971-2 0  9990
2 52611  53.2153 172.8088 0001494  79.4315 280.6846 15.08799141130156
STARLINK-4002           
1 52612U 22052Q   24263.16275028 -.00002623  00000+0 -14680-3 0  9991
2 52612  53.2147 167.6839 0001143 109.5317 250.5798 15.08828730130232
STARLINK-3921           
1 52613U 22052R   24262.64611497  .63370726  12506-4  15008-2 0  9990
2 52613  53.1891 142.2244 0004323 256.7670 202.2056 16.46105099130530
STARLINK-3982           
1 52614U 22052S   24262.95023045 -.00004433  00000+0 -26067-3 0  9992
2 52614  53.2150 158.6356 0001489 111.1259 248.9892 15.08827961130331
STARLINK-4011           
1 52615U 22052T   24263.46221883  .00000427  00000+0  44905-4 0  9999
2 52615  53.2169 171.3360 0001589  80.0092 280.1079 15.08840879130203
STARLINK-4015           
1 52616U 22052U   24263.00912586 -.00001625  00000+0 -84074-4 0  9991
2 52616  53.2148 158.3687 0001239 102.2675 257.8456 15.08821954130342
STARLINK-3996           
1 52617U 22052V   24263.13424742 -.00001989  00000+0 -10697-3 0  9990
2 52617  53.2160 157.8113 0001338 105.6967 254.4173 15.08824843130367
STARLINK-3983           
1 52618U 22052W   24263.00543769 -.00000524  00000+0 -14830-4 0  9996
2 52618  53.2151 158.3918 0001256 102.0541 258.0592 15.08829887130341
STARLINK-3741           
1 52619U 22052X   24263.13056353 -.00003458  00000+0 -19936-3 0  9999
2 52619  53.2146 157.8184 0001376  94.5539 265.5610 15.08821109130365
STARLINK-3975           
1 52620U 22052Y   24263.45854316 -.00001800  00000+0 -95082-4 0  9997
2 52620  53.2159 171.3557 0000938  81.5905 278.5193 15.08834881130206
STARLINK-3984           
1 52621U 22052Z   24263.12320033 -.00002493  00000+0 -13868-3 0  9996
2 52621  53.2143 157.8644 0000835 134.2142 225.8919 15.08829096130361
STARLINK-4008           
1 52622U 22052AA  24263.15674491 -.00000492  00000+0 -12810-4 0  9994
2 52622  53.2150 172.7116 0001505 130.0582 230.0542 15.08854185130162
STARLINK-3986           
1 52623U 22052AB  24263.18576061  .00005612  00000+0  37068-3 0  9990
2 52623  53.2146 157.5784 0001214  80.4379 279.6750 15.08809364130371
STARLINK-4009           
1 52624U 22052AC  24262.92912725 -.00003139  00000+0 -17929-3 0  9991
2 52624  53.2164 158.7074 0001965 118.2999 241.8192 15.08816130130334
STARLINK-3988           
1 52625U 22052AD  24262.98336671 -.00001766  00000+0 -92955-4 0  9995
2 52625  53.2158 158.4951 0001230  69.4308 290.6816 15.08829626130345
STARLINK-3990           
1 52626U 22052AE  24263.12688280 -.00003108  00000+0 -17733-3 0  9991
2 52626  53.2153 157.8418 0001485 100.9669 259.1490 15.08823751130368
STARLINK-3992           
1 52627U 22052AF  24263.43601008 -.00000714  00000+0 -26798-4 0  9991
2 52627  53.2161 156.4501 0001297 115.5662 244.5465 15.08826622130418
STARLINK-4001           
1 52628U 22052AG  24263.48429394  .00001194  00000+0  93066-4 0  9996
2 52628  53.2160 171.2383 0001333 111.0284 249.0850 15.08839945130211
STARLINK-4022           
1 52629U 22052AH  24263.09742089 -.00000811  00000+0 -32861-4 0  9996
2 52629  53.2149 157.9362 0000894 106.6698 253.4392 15.08836234130361
STARLINK-3989           
1 52630U 22052AJ  24263.44335954 -.00000743  00000+0 -28616-4 0  9993
2 52630  53.2169 156.4192 0001156 136.7987 223.3096 15.08834197130416
STARLINK-3794           
1 52631U 22052AK  24263.09837928  .00007956  00000+0  51733-3 0  9999
2 52631  53.2146 157.9805 0001360 102.3979 257.7166 15.08846515130366
STARLINK-3995           
1 52632U 22052AL  24262.97600474 -.00001238  00000+0 -59720-4 0  9994
2 52632  53.2175 158.5159 0001538  77.3576 282.7588 15.08828983130342
STARLINK-3994           
1 52633U 22052AM  24263.41759376  .00003451  00000+0  23481-3 0  9992
2 52633  53.2149 156.5356 0001451  82.4350 277.6807 15.08835581130419
STARLINK-3974           
1 52634U 22052AN  24263.43233029  .00002542  00000+0  17782-3 0  9994
2 52634  53.2157 156.5049 0001482  84.8535 275.2626 15.08827972130411
STARLINK-3978           
1 52635U 22052AP  24263.06891243  .00015561  00000+0  99420-3 0  9996
2 52635  53.2139 148.1062 0001444  88.7754 271.3404 15.08817865130497
STARLINK-3967           
1 52636U 22052AQ  24263.42496739 -.00000345  00000+0 -36124-5 0  9998
2 52636  53.2165 156.5049 0001374  93.1625 266.9524 15.08827929130411
STARLINK-3961           
1 52637U 22052AR  24262.99899874  .00004392  00000+0  29396-3 0  9992
2 52637  53.2138 148.4179 0001033  85.8281 274.2829 15.08827125130489
STARLINK-3941           
1 52638U 22052AS  24263.42128128 -.00000882  00000+0 -37350-4 0  9991
2 52638  53.2154 156.5212 0001359 113.6625 246.4510 15.08837639130411
STARLINK-3968           
1 52639U 22052AT  24262.92171461 -.00001398  00000+0 -69802-4 0  9994
2 52639  53.2148 148.7626 0001268  92.2251 267.8886 15.08829155130476
STARLINK-3977           
1 52640U 22052AU  24263.00636045 -.00001916  00000+0 -10236-3 0  9992
2 52640  53.2162 148.4138 0001491  92.0564 268.0599 15.08829079130482
STARLINK-3991           
1 52641U 22052AV  24263.06990784 -.00001837  00000+0 -97430-4 0  9996
2 52641  53.2149 148.2963 0001280 101.2444 258.8692 15.08825375130495
STARLINK-3971           
1 52642U 22052AW  24263.39276345 -.00000784  00000+0 -31210-4 0  9997
2 52642  53.2141 146.6542 0000971 101.0542 259.0560 15.08828638130544
STARLINK-3963           
1 52643U 22052AX  24262.97050671 -.00001868  00000+0 -99359-4 0  9995
2 52643  53.2155 148.5127 0001315 120.4309 239.6813 15.08831979130489
STARLINK-3985           
1 52644U 22052AY  24262.92540259 -.00001977  00000+0 -10618-3 0  9998
2 52644  53.2152 148.7510 0001134  84.5168 275.5953 15.08828352130471
STARLINK-3973           
1 52645U 22052AZ  24263.37805644 -.00002079  00000+0 -11257-3 0  9995
2 52645  53.2160 146.8235 0001270  94.4540 265.6597 15.08832499130548
STARLINK-3832           
1 52646U 22052BA  24263.38172979 -.00001497  00000+0 -76039-4 0  9998
2 52646  53.2157 146.7393 0001190  90.4151 269.6977 15.08830986130549
STARLINK-3846           
1 52647U 22052BB  24263.10572812 -.00004153  00000+0 -24314-3 0  9999
2 52647  53.2145 148.0467 0001145  95.9938 264.1185 15.08822270130501
STARLINK-3854           
1 52648U 22052BC  24263.37435970 -.00001040  00000+0 -47267-4 0  9997
2 52648  53.2153 146.7338 0001219 112.7335 247.3786 15.08833126130540
STARLINK-3868           
1 52649U 22052BD  24263.41480810 -.00004401  00000+0 -25867-3 0  9991
2 52649  53.2153 146.4006 0001065 112.4211 247.6894 15.08828422130556
STARLINK-3891           
1 52650U 22052BE  24263.38265877  .00000914  00000+0  75528-4 0  9996
2 52650  53.2147 136.8021 0001343  92.7024 267.4122 15.08829067130686
STARLINK-4004           
1 52656U 22053A   24262.61769072 -.00001474  00000+0 -74532-4 0  9992
2 52656  53.2178  45.1381 0001402  98.8056 261.3095 15.08831218130037
STARLINK-4084           
1 52657U 22053B   24262.72077201 -.00000314  00000+0 -16164-5 0  9991
2 52657  53.2160  44.9817 0001256  99.0710 261.0424 15.08833557130342
STARLINK-4082           
1 52658U 22053C   24262.62041663  .00000124  00000+0  25879-4 0  9993
2 52658  53.2166  45.1144 0001324 102.1616 257.9524 15.08828895130155
STARLINK-3960           
1 52659U 22053D   24262.61672670 -.00001561  00000+0 -80022-4 0  9990
2 52659  53.2150  45.0803 0001703 104.2023 255.9158 15.08832429130144
STARLINK-4081           
1 52660U 22053E   24262.61305434  .00000850  00000+0  71496-4 0  9996
2 52660  53.2158  45.1439 0001169  94.9632 265.1494 15.08830841130037
STARLINK-4042           
1 52661U 22053F   24262.60936891  .00000228  00000+0  32435-4 0  9992
2 52661  53.2170  45.1648 0001317  89.0024 271.1119 15.08832097129965
STARLINK-4044           
1 52662U 22053G   24262.60201401 -.00000956  00000+0 -41984-4 0  9994
2 52662  53.2162  45.1961 0001259  83.1689 276.9446 15.08831409129964
STARLINK-4037           
1 52663U 22053H   24263.39321964  .00003885  00000+0  26213-3 0  9998
2 52663  53.2175  41.6479 0001131  63.9422 296.1686 15.08830553130088
STARLINK-4070           
1 52664U 22053J   24262.60568788  .00000671  00000+0  60264-4 0  9994
2 52664  53.2174  45.1817 0001357  92.9120 267.2028 15.08840109129962
STARLINK-4064           
1 52665U 22053K   24262.71978037 -.00001605  00000+0 -82825-4 0  9996
2 52665  53.2174  44.6701 0001291  95.5756 264.5384 15.08829509129988
STARLINK-4079           
1 52666U 22053L   24262.62404377  .00000051  00000+0  21310-4 0  9992
2 52666  53.2164  44.7160 0001196  83.8540 276.2588 15.08836567129970
STARLINK-4076           
1 52667U 22053M   24262.71609558 -.00000549  00000+0 -16426-4 0  9997
2 52667  53.2178  44.6910 0001305  95.8739 264.2402 15.08831380129984
STARLINK-4067           
1 52668U 22053N   24263.38584873  .00002133  00000+0  15208-3 0  9999
2 52668  53.2170  41.6807 0001238  78.8747 281.2384 15.08840986130087
STARLINK-3972           
1 52669U 22053P   24263.36746079 -.00000994  00000+0 -44359-4 0  9991
2 52669  53.2155  41.7611 0001224  81.0442 279.0689 15.08830973130075
STARLINK-4075           
1 52670U 22053Q   24263.38953712  .00001663  00000+0  12258-3 0  9993
2 52670  53.2180  41.7288 0001453 107.7114 252.4037 15.08838564129659
STARLINK-4071           
1 52671U 22053R   24262.63513668  .00000838  00000+0  70754-4 0  9992
2 52671  53.2173  45.0533 0001224  96.9376 263.1755 15.08833476129964
